GLOBALSTAR M067         
1 32263U 07048A   25169.40519171 -.00000053  00000+0  33001-3 0  9994
2 32263  51.9745  32.3681 0001350  23.8850 148.0628 12.40673790809888
GLOBALSTAR M070         
1 32264U 07048B   25169.58463038 -.00000087  00000+0  95910-4 0  9999
2 32264  51.9735 124.2448 0000447  60.5776 110.6867 12.62319423814825
GLOBALSTAR M066         
1 32265U 07048C   25167.11138385 -.00000099  00000+0 -36991-4 0  9999
2 32265  51.9627  28.6809 0002927 290.1311 241.6330 12.30185502815167
GLOBALSTAR M068         
1 32266U 07048D   25168.61530632 -.00000070  00000+0  18914-3 0  9999
2 32266  51.9896 300.9523 0001726 127.8592 245.2757 12.62825058817615
GLOBALSTAR M079         
1 37188U 10054A   25168.67663495 -.00000092  00000+0  65350-4 0  9999
2 37188  52.0017 138.2941 0000380 339.7232 194.0146 12.62265071676514
GLOBALSTAR M074         
1 37189U 10054B   25168.62371177 -.00000100  00000+0  22540-4 0  9992
2 37189  51.9993 137.7791 0000452  22.3535 149.5214 12.62256954677112
GLOBALSTAR M076         
1 37190U 10054C   25168.64976465 -.00000099  00000+0  26778-4 0  9991
2 37190  52.0008 137.8698 0000512   4.1905 166.8068 12.62263325676833
GLOBALSTAR M077         
1 37191U 10054D   25168.55739543 -.00000085  00000+0  10388-3 0  9990
2 37191  52.0071  95.0079 0000572  42.8338 128.1875 12.62268447677194
